{
  "type": "FeatureCollection",
  "features": [
    {
      "type": "Feature",
      "properties": {
        "norad_id": 66809,
        "name": "STARLINK-35979",
        "group": "last-30-days",
        "lat": -42.95292781369405,
        "lon": 147.1012773665392,
        "alt_km": 298.848440532176,
        "timestamp": "2025-12-14T18:52:54.243445+00:00",
        "meta_object_name": "STARLINK-35979",
        "meta_object_id": "2025-278U",
        "meta_epoch": "2025-12-13T14:35:43.976832",
        "meta_mean_motion": 15.87786553,
        "meta_eccentricity": 0.0014184,
        "meta_inclination": 42.9962,
        "meta_ra_of_asc_node": 246.653,
        "meta_arg_of_pericenter": 245.6682,
        "meta_mean_anomaly": 114.2711,
        "meta_ephemeris_type": 0,
        "meta_classification_type": "U",
        "meta_norad_cat_id": 66809,
        "meta_element_set_no": 999,
        "meta_rev_at_epoch": 197,
        "meta_bstar": 0.0022005782,
        "meta_mean_motion_dot": 0.00663007,
        "meta_mean_motion_ddot": 0,
        "tle_line1": "1 66809U 25278U   25347.60814788  .00663007  00000+0  22006-2 0  9999",
        "tle_line2": "2 66809  42.9962 246.6530 0014184 245.6682 114.2711 15.87786553  1979"
      },
      "geometry": {
        "type": "Point",
        "coordinates": [
          147.1012773665392,
          -42.95292781369405
        ]
      }
    },
    {
      "type": "Feature",
      "properties": {
        "norad_id": 66810,
        "name": "STARLINK-36046",
        "group": "last-30-days",
        "lat": -40.80411704744378,
        "lon": 171.40787465648896,
        "alt_km": 297.2768915222614,
        "timestamp": "2025-12-14T18:52:54.243455+00:00",
        "meta_object_name": "STARLINK-36046",
        "meta_object_id": "2025-278V",
        "meta_epoch": "2025-12-13T01:00:19.749600",
        "meta_mean_motion": 15.89788073,
        "meta_eccentricity": 0.00029914,
        "meta_inclination": 42.9974,
        "meta_ra_of_asc_node": 250.1521,
        "meta_arg_of_pericenter": 285.6834,
        "meta_mean_anomaly": 74.371,
        "meta_ephemeris_type": 0,
        "meta_classification_type": "U",
        "meta_norad_cat_id": 66810,
        "meta_element_set_no": 999,
        "meta_rev_at_epoch": 188,
        "meta_bstar": 0.0022644771,
        "meta_mean_motion_dot": 0.00758232,
        "meta_mean_motion_ddot": 0,
        "tle_line1": "1 66810U 25278V   25347.04189525  .00758232  00000+0  22645-2 0  9997",
        "tle_line2": "2 66810  42.9974 250.1521 0002991 285.6834  74.3710 15.89788073  1886"
      },
      "geometry": {
        "type": "Point",
        "coordinates": [
          171.40787465648896,
          -40.80411704744378
        ]
      }
    },
    {
      "type": "Feature",
      "properties": {
        "norad_id": 66811,
        "name": "STARLINK-36045",
        "group": "last-30-days",
        "lat": -29.566347529235298,
        "lon": -158.25036226278922,
        "alt_km": 268.7061415010121,
        "timestamp": "2025-12-14T18:52:54.243465+00:00",
        "meta_object_name": "STARLINK-36045",
        "meta_object_id": "2025-278W",
        "meta_epoch": "2025-12-13T01:00:27.694944",
        "meta_mean_motion": 15.89484454,
        "meta_eccentricity": 0.00029504,
        "meta_inclination": 42.997,
        "meta_ra_of_asc_node": 250.1519,
        "meta_arg_of_pericenter": 282.9701,
        "meta_mean_anomaly": 77.0844,
        "meta_ephemeris_type": 0,
        "meta_classification_type": "U",
        "meta_norad_cat_id": 66811,
        "meta_element_set_no": 999,
        "meta_rev_at_epoch": 188,
        "meta_bstar": 0.0092253817,
        "meta_mean_motion_dot": 0.03295879,
        "meta_mean_motion_ddot": 0,
        "tle_line1": "1 66811U 25278W   25347.04198721  .03295879  00000+0  92254-2 0  9995",
        "tle_line2": "2 66811  42.9970 250.1519 0002950 282.9701  77.0844 15.89484454  1882"
      },
      "geometry": {
        "type": "Point",
        "coordinates": [
          -158.25036226278922,
          -29.566347529235298
        ]
      }
    },
    {
      "type": "Feature",
      "properties": {
        "norad_id": 66812,
        "name": "STARLINK-36054",
        "group": "last-30-days",
        "lat": -38.82938728400975,
        "lon": 119.16102968844281,
        "alt_km": 328.52158380835226,
        "timestamp": "2025-12-14T18:52:54.243475+00:00",
        "meta_object_name": "STARLINK-36054",
        "meta_object_id": "2025-278X",
        "meta_epoch": "2025-12-13T16:05:49.408800",
        "meta_mean_motion": 15.85032711,
        "meta_eccentricity": 0.00040265,
        "meta_inclination": 42.9972,
        "meta_ra_of_asc_node": 246.2602,
        "meta_arg_of_pericenter": 259.0984,
        "meta_mean_anomaly": 100.9436,
        "meta_ephemeris_type": 0,
        "meta_classification_type": "U",
        "meta_norad_cat_id": 66812,
        "meta_element_set_no": 999,
        "meta_rev_at_epoch": 198,
        "meta_bstar": -0.0090689916,
        "meta_mean_motion_dot": -0.01927637,
        "meta_mean_motion_ddot": 0,
        "tle_line1": "1 66812U 25278X   25347.67071075 -.01927637  00000+0 -90690-2 0  9993",
        "tle_line2": "2 66812  42.9972 246.2602 0004026 259.0984 100.9436 15.85032711  1983"
      },
      "geometry": {
        "type": "Point",
        "coordinates": [
          119.16102968844281,
          -38.82938728400975
        ]
      }
    },
    {
      "type": "Feature",
      "properties": {
        "norad_id": 66813,
        "name": "STARLINK-36042",
        "group": "last-30-days",
        "lat": -42.6539006230755,
        "lon": 140.78535761974146,
        "alt_km": 304.027676134222,
        "timestamp": "2025-12-14T18:52:54.243487+00:00",
        "meta_object_name": "STARLINK-36042",
        "meta_object_id": "2025-278Y",
        "meta_epoch": "2025-12-13T17:36:40.630176",
        "meta_mean_motion": 15.8651752,
        "meta_eccentricity": 0.00121856,
        "meta_inclination": 42.9968,
        "meta_ra_of_asc_node": 245.8749,
        "meta_arg_of_pericenter": 245.7656,
        "meta_mean_anomaly": 114.1945,
        "meta_ephemeris_type": 0,
        "meta_classification_type": "U",
        "meta_norad_cat_id": 66813,
        "meta_element_set_no": 999,
        "meta_rev_at_epoch": 199,
        "meta_bstar": 0.0023000769,
        "meta_mean_motion_dot": 0.00648898,
        "meta_mean_motion_ddot": 0,
        "tle_line1": "1 66813U 25278Y   25347.73380359  .00648898  00000+0  23001-2 0  9997",
        "tle_line2": "2 66813  42.9968 245.8749 0012185 245.7656 114.1945 15.86517520  1999"
      },
      "geometry": {
        "type": "Point",
        "coordinates": [
          140.78535761974146,
          -42.6539006230755
        ]
      }
    },
    {
      "type": "Feature",
      "properties": {
        "norad_id": 66814,
        "name": "STARLINK-35984",
        "group": "last-30-days",
        "lat": -38.32486530746026,
        "lon": -178.74916759503094,
        "alt_km": 309.1159890022691,
        "timestamp": "2025-12-14T18:52:54.243500+00:00",
        "meta_object_name": "STARLINK-35984",
        "meta_object_id": "2025-278Z",
        "meta_epoch": "2025-12-12T05:17:39.039072",
        "meta_mean_motion": 15.89263924,
        "meta_eccentricity": 0.00022268,
        "meta_inclination": 42.9971,
        "meta_ra_of_asc_node": 255.1754,
        "meta_arg_of_pericenter": 272.7868,
        "meta_mean_anomaly": 87.2751,
        "meta_ephemeris_type": 0,
        "meta_classification_type": "U",
        "meta_norad_cat_id": 66814,
        "meta_element_set_no": 999,
        "meta_rev_at_epoch": 175,
        "meta_bstar": -0.00078876214,
        "meta_mean_motion_dot": -0.00230906,
        "meta_mean_motion_ddot": 0,
        "tle_line1": "1 66814U 25278Z   25346.22059073 -.00230906  00000+0 -78876-3 0  9997",
        "tle_line2": "2 66814  42.9971 255.1754 0002226 272.7868  87.2751 15.89263924  1752"
      },
      "geometry": {
        "type": "Point",
        "coordinates": [
          -178.74916759503094,
          -38.32486530746026
        ]
      }
    },
    {
      "type": "Feature",
      "properties": {
        "norad_id": 66815,
        "name": "STARLINK-35985",
        "group": "last-30-days",
        "lat": -27.960244446904913,
        "lon": -155.4951353041983,
        "alt_km": 285.67623791549613,
        "timestamp": "2025-12-14T18:52:54.243511+00:00",
        "meta_object_name": "STARLINK-35985",
        "meta_object_id": "2025-278AA",
        "meta_epoch": "2025-12-12T18:52:41.807136",
        "meta_mean_motion": 15.89981059,
        "meta_eccentricity": 0.00144492,
        "meta_inclination": 42.9985,
        "meta_ra_of_asc_node": 251.6744,
        "meta_arg_of_pericenter": 289.6758,
        "meta_mean_anomaly": 70.2558,
        "meta_ephemeris_type": 0,
        "meta_classification_type": "U",
        "meta_norad_cat_id": 66815,
        "meta_element_set_no": 999,
        "meta_rev_at_epoch": 305,
        "meta_bstar": 0.0028507856,
        "meta_mean_motion_dot": 0.00887373,
        "meta_mean_motion_ddot": 0.00032777577,
        "tle_line1": "1 66815U 25278AA  25346.78659499  .00887373  32778-3  28508-2 0  9998",
        "tle_line2": "2 66815  42.9985 251.6744 0014449 289.6758  70.2558 15.89981059  3051"
      },
      "geometry": {
        "type": "Point",
        "coordinates": [
          -155.4951353041983,
          -27.960244446904913
        ]
      }
    }
  ]
}